start=new Date('2021-09-06T00:00:00.000Z').valueOf();
sats=[{"OBJECT_ID":"2020-070W","MEAN_ANOMALY":"251.9625","TIME_SYSTEM":"UTC","MEAN_MOTION_DOT":"-0.00000296","CLASSIFICATION_TYPE":"U","ECCENTRICITY":"0.00011070","FILE":"3109348","ARG_OF_PERICENTER":"108.1484","COUNTRY_CODE":"US","APOAPSIS":"547.999","PERIOD":"95.593","EPHEMERIS_TYPE":"0","EPOCH":"2021-09-05T17:42:56.944512","RCS_SIZE":"LARGE","TLE_LINE1":"1 46552U 20070W   21248.73815908 -.00000296  00000-0 -95586-6 0  9997","NORAD_CAT_ID":"46552","TLE_LINE2":"2 46552  53.0549 350.5931 0001107 108.1484 251.9625 15.06393900 51632","GP_ID":"184165216","DECAY_DATE":null,"INCLINATION":"53.0549","MEAN_MOTION_DDOT":"0.0000000000000","OBJECT_TYPE":"PAYLOAD","CENTER_NAME":"EARTH","OBJECT_NAME":"STARLINK-1649","REV_AT_EPOCH":"5163","SEMIMAJOR_AXIS":"6925.367","ELEMENT_SET_NO":"999","SITE":"AFETR","REF_FRAME":"TEME","LAUNCH_DATE":"2020-10-06","MEAN_MOTION":"15.06393900","RA_OF_ASC_NODE":"350.5931","MEAN_ELEMENT_THEORY":"SGP4","PERIAPSIS":"546.466","BSTAR":"-0.00000095586000"},{"EPOCH":"2021-09-05T13:36:47.337120","RCS_SIZE":"LARGE","PERIOD":"95.591","EPHEMERIS_TYPE":"0","TLE_LINE2":"2 46553  53.0548 336.3611 0001055 121.5565 238.5527 15.06413482 51810","NORAD_CAT_ID":"46553","GP_ID":"184165968","DECAY_DATE":null,"TLE_LINE1":"1 46553U 20070X   21248.56721455  .00002692  00000-0  19949-3 0  9998","TIME_SYSTEM":"UTC","MEAN_MOTION_DOT":"0.00002692","OBJECT_ID":"2020-070X","MEAN_ANOMALY":"238.5527","COUNTRY_CODE":"US","APOAPSIS":"547.903","CLASSIFICATION_TYPE":"U","ECCENTRICITY":"0.00010550","FILE":"3109348","ARG_OF_PERICENTER":"121.5565","MEAN_MOTION":"15.06413482","RA_OF_ASC_NODE":"336.3611","REF_FRAME":"TEME","LAUNCH_DATE":"2020-10-06","PERIAPSIS":"546.442","BSTAR":"0.00019949000000","MEAN_ELEMENT_THEORY":"SGP4","CENTER_NAME":"EARTH","INCLINATION":"53.0548","MEAN_MOTION_DDOT":"0.0000000000000","OBJECT_TYPE":"PAYLOAD","SITE":"AFETR","OBJECT_NAME":"STARLINK-1664","REV_AT_EPOCH":"5181","SEMIMAJOR_AXIS":"6925.307","ELEMENT_SET_NO":"999"},{"PERIOD":"95.593","EPHEMERIS_TYPE":"0","RCS_SIZE":"LARGE","EPOCH":"2021-09-05T14:53:06.237312","TLE_LINE1":"1 46554U 20070Y   21248.62021108 -.00000232  00000-0  33385-5 0  9995","GP_ID":"184166215","TLE_LINE2":"2 46554  53.0550 351.1250 0001065 111.0250 249.0853 15.06394218 51616","NORAD_CAT_ID":"46554","DECAY_DATE":null,"OBJECT_ID":"2020-070Y","MEAN_ANOMALY":"249.0853","MEAN_MOTION_DOT":"-0.00000232","TIME_SYSTEM":"UTC","ECCENTRICITY":"0.00010650","CLASSIFICATION_TYPE":"U","ARG_OF_PERICENTER":"111.0250","FILE":"3109348","COUNTRY_CODE":"US","APOAPSIS":"547.969","REF_FRAME":"TEME","LAUNCH_DATE":"2020-10-06","RA_OF_ASC_NODE":"351.1250","MEAN_MOTION":"15.06394218","MEAN_ELEMENT_THEORY":"SGP4","PERIAPSIS":"546.494","BSTAR":"0.00000333850000","INCLINATION":"53.0550","OBJECT_TYPE":"PAYLOAD","MEAN_MOTION_DDOT":"0.0000000000000","CENTER_NAME":"EARTH","REV_AT_EPOCH":"5161","OBJECT_NAME":"STARLINK-1671","ELEMENT_SET_NO":"999","SEMIMAJOR_AXIS":"6925.366","SITE":"AFETR"},{"PERIAPSIS":"516.671","BSTAR":"0.02632900000000","MEAN_ELEMENT_THEORY":"SGP4","RA_OF_ASC_NODE":"324.9601","MEAN_MOTION":"15.16138911","REF_FRAME":"TEME","LAUNCH_DATE":"2020-10-06","SITE":"AFETR","OBJECT_NAME":"STARLINK-1674","REV_AT_EPOCH":"5199","ELEMENT_SET_NO":"999","SEMIMAJOR_AXIS":"6895.660","CENTER_NAME":"EARTH","INCLINATION":"53.0550","MEAN_MOTION_DDOT":"0.0000000000000","OBJECT_TYPE":"PAYLOAD","NORAD_CAT_ID":"46555","TLE_LINE2":"2 46555  53.0550 324.9601 0001239 151.7590 208.3470 15.16138911 51997","GP_ID":"184165467","DECAY_DATE":null,"TLE_LINE1":"1 46555U 20070Z   21248.78666796  .00547994  00000-0  26329-1 0  9997","EPOCH":"2021-09-05T18:52:48.111744","RCS_SIZE":"LARGE","PERIOD":"94.978","EPHEMERIS_TYPE":"0","COUNTRY_CODE":"US","APOAPSIS":"518.379","CLASSIFICATION_TYPE":"U","ECCENTRICITY":"0.00012390","FILE":"3109348","ARG_OF_PERICENTER":"151.7590","TIME_SYSTEM":"UTC","MEAN_MOTION_DOT":"0.00547994","OBJECT_ID":"2020-070Z","MEAN_ANOMALY":"208.3470"},{"APOAPSIS":"548.030","COUNTRY_CODE":"US","FILE":"3109348","ARG_OF_PERICENTER":"117.4687","CLASSIFICATION_TYPE":"U","ECCENTRICITY":"0.00011450","TIME_SYSTEM":"UTC","MEAN_MOTION_DOT":"0.00000540","MEAN_ANOMALY":"242.6418","OBJECT_ID":"2020-070AA","DECAY_DATE":null,"TLE_LINE2":"2 46556  53.0565   5.8501 0001145 117.4687 242.6418 15.06392349 51416","GP_ID":"184165717","NORAD_CAT_ID":"46556","TLE_LINE1":"1 46556U 20070AA  21248.67964298  .00000540  00000-0  55134-4 0  9994","EPOCH":"2021-09-05T16:18:41.153472","RCS_SIZE":"LARGE","EPHEMERIS_TYPE":"0","PERIOD":"95.593","SITE":"AFETR","SEMIMAJOR_AXIS":"6925.372","ELEMENT_SET_NO":"999","OBJECT_NAME":"STARLINK-1676","REV_AT_EPOCH":"5141","CENTER_NAME":"EARTH","MEAN_MOTION_DDOT":"0.0000000000000","OBJECT_TYPE":"PAYLOAD","INCLINATION":"53.0565","BSTAR":"0.00005513400000","PERIAPSIS":"546.444","MEAN_ELEMENT_THEORY":"SGP4","MEAN_MOTION":"15.06392349","RA_OF_ASC_NODE":"5.8501","LAUNCH_DATE":"2020-10-06","REF_FRAME":"TEME"},{"MEAN_ELEMENT_THEORY":"SGP4","BSTAR":"-0.00002461000000","PERIAPSIS":"546.423","LAUNCH_DATE":"2020-10-06","REF_FRAME":"TEME","MEAN_MOTION":"15.06393638","RA_OF_ASC_NODE":"350.6524","ELEMENT_SET_NO":"999","SEMIMAJOR_AXIS":"6925.368","OBJECT_NAME":"STARLINK-1679","REV_AT_EPOCH":"5163","SITE":"AFETR","MEAN_MOTION_DDOT":"0.0000000000000","OBJECT_TYPE":"PAYLOAD","INCLINATION":"53.0554","CENTER_NAME":"EARTH","TLE_LINE1":"1 46557U 20070AB  21248.72341398 -.00000648  00000-0 -24610-4 0  9997","DECAY_DATE":null,"GP_ID":"184166469","TLE_LINE2":"2 46557  53.0554 350.6524 0001170 118.3283 241.7824 15.06393638 51638","NORAD_CAT_ID":"46557","EPHEMERIS_TYPE":"0","PERIOD":"95.593","EPOCH":"2021-09-05T17:21:42.967872","RCS_SIZE":"LARGE","FILE":"3109348","ARG_OF_PERICENTER":"118.3283","CLASSIFICATION_TYPE":"U","ECCENTRICITY":"0.00011700","APOAPSIS":"548.043","COUNTRY_CODE":"US","MEAN_ANOMALY":"241.7824","OBJECT_ID":"2020-070AB","TIME_SYSTEM":"UTC","MEAN_MOTION_DOT":"-0.00000648"},{"SITE":"AFETR","SEMIMAJOR_AXIS":"6925.352","ELEMENT_SET_NO":"999","REV_AT_EPOCH":"5155","OBJECT_NAME":"STARLINK-1680","CENTER_NAME":"EARTH","OBJECT_TYPE":"PAYLOAD","MEAN_MOTION_DDOT":"0.0000000000000","INCLINATION":"53.0548","BSTAR":"0.00011618000000","PERIAPSIS":"546.449","MEAN_ELEMENT_THEORY":"SGP4","RA_OF_ASC_NODE":"352.1181","MEAN_MOTION":"15.06398739","LAUNCH_DATE":"2020-10-06","REF_FRAME":"TEME","APOAPSIS":"547.986","COUNTRY_CODE":"US","ARG_OF_PERICENTER":"123.4898","FILE":"3109252","ECCENTRICITY":"0.00011100","CLASSIFICATION_TYPE":"U","MEAN_MOTION_DOT":"0.00001450","TIME_SYSTEM":"UTC","MEAN_ANOMALY":"236.6197","OBJECT_ID":"2020-070AC","DECAY_DATE":null,"TLE_LINE2":"2 46558  53.0548 352.1181 0001110 123.4898 236.6197 15.06398739 51555","NORAD_CAT_ID":"46558","GP_ID":"184140278","TLE_LINE1":"1 46558U 20070AC  21248.39905233  .00001450  00000-0  11618-3 0  9998","RCS_SIZE":"LARGE","EPOCH":"2021-09-05T09:34:38.121312","EPHEMERIS_TYPE":"0","PERIOD":"95.592"},{"TLE_LINE2":"2 46559  53.0555 335.6700 0000691 117.2376 242.8683 15.06405003 51835","NORAD_CAT_ID":"46559","GP_ID":"184164967","DECAY_DATE":null,"TLE_LINE1":"1 46559U 20070AD  21248.71926352  .00001612  00000-0  12705-3 0  9998","EPOCH":"2021-09-05T17:15:44.368128","RCS_SIZE":"LARGE","PERIOD":"95.592","EPHEMERIS_TYPE":"0","COUNTRY_CODE":"US","APOAPSIS":"547.677","CLASSIFICATION_TYPE":"U","ECCENTRICITY":"0.00006910","FILE":"3109348","ARG_OF_PERICENTER":"117.2376","TIME_SYSTEM":"UTC","MEAN_MOTION_DOT":"0.00001612","OBJECT_ID":"2020-070AD","MEAN_ANOMALY":"242.8683","PERIAPSIS":"546.720","BSTAR":"0.00012705000000","MEAN_ELEMENT_THEORY":"SGP4","RA_OF_ASC_NODE":"335.6700","MEAN_MOTION":"15.06405003","REF_FRAME":"TEME","LAUNCH_DATE":"2020-10-06","SITE":"AFETR","OBJECT_NAME":"STARLINK-1681","REV_AT_EPOCH":"5183","ELEMENT_SET_NO":"999","SEMIMAJOR_AXIS":"6925.333","CENTER_NAME":"EARTH","INCLINATION":"53.0555","MEAN_MOTION_DDOT":"0.0000000000000","OBJECT_TYPE":"PAYLOAD"},{"RA_OF_ASC_NODE":"351.1534","MEAN_MOTION":"15.06416499","LAUNCH_DATE":"2020-10-06","REF_FRAME":"TEME","BSTAR":"0.00021388000000","PERIAPSIS":"546.329","MEAN_ELEMENT_THEORY":"SGP4","CENTER_NAME":"EARTH","OBJECT_TYPE":"PAYLOAD","MEAN_MOTION_DDOT":"0.0000000000000","INCLINATION":"53.0561","SITE":"AFETR","ELEMENT_SET_NO":"999","SEMIMAJOR_AXIS":"6925.298","REV_AT_EPOCH":"5161","OBJECT_NAME":"STARLINK-1706","RCS_SIZE":"LARGE","EPOCH":"2021-09-05T14:42:29.405376","EPHEMERIS_TYPE":"0","PERIOD":"95.591","DECAY_DATE":null,"TLE_LINE2":"2 46560  53.0561 351.1534 0001204 124.3873 235.7230 15.06416499 51610","GP_ID":"184165217","NORAD_CAT_ID":"46560","TLE_LINE1":"1 46560U 20070AE  21248.61284034  .00002907  00000-0  21388-3 0  9998","MEAN_MOTION_DOT":"0.00002907","TIME_SYSTEM":"UTC","MEAN_ANOMALY":"235.7230","OBJECT_ID":"2020-070AE","APOAPSIS":"547.997","COUNTRY_CODE":"US","ARG_OF_PERICENTER":"124.3873","FILE":"3109348","ECCENTRICITY":"0.00012040","CLASSIFICATION_TYPE":"U"},{"RCS_SIZE":"LARGE","EPOCH":"2021-09-05T16:39:15.130368","PERIOD":"95.592","EPHEMERIS_TYPE":"0","TLE_LINE2":"2 46561  53.0560 350.7885 0001074 139.3955 220.7114 15.06396284 51621","GP_ID":"184165969","NORAD_CAT_ID":"46561","DECAY_DATE":null,"TLE_LINE1":"1 46561U 20070AF  21248.69392512  .00001245  00000-0  10247-3 0  9994","MEAN_MOTION_DOT":"0.00001245","TIME_SYSTEM":"UTC","OBJECT_ID":"2020-070AF","MEAN_ANOMALY":"220.7114","COUNTRY_CODE":"US","APOAPSIS":"547.969","ECCENTRICITY":"0.00010740","CLASSIFICATION_TYPE":"U","ARG_OF_PERICENTER":"139.3955","FILE":"3109348","MEAN_MOTION":"15.06396284","RA_OF_ASC_NODE":"350.7885","REF_FRAME":"TEME","LAUNCH_DATE":"2020-10-06","PERIAPSIS":"546.481","BSTAR":"0.00010247000000","MEAN_ELEMENT_THEORY":"SGP4","CENTER_NAME":"EARTH","INCLINATION":"53.0560","OBJECT_TYPE":"PAYLOAD","MEAN_MOTION_DDOT":"0.0000000000000","SITE":"AFETR","REV_AT_EPOCH":"5162","OBJECT_NAME":"STARLINK-1709","SEMIMAJOR_AXIS":"6925.360","ELEMENT_SET_NO":"999"}];
